STARLINK-6215           
1 57367U 23099AR  26105.03782602  .00000118  00000+0  13810-4 0  9999
2 57367  43.0043  17.8033 0001269 266.1221  93.9486 15.27577954152722
STARLINK-6218           
1 57368U 23099AS  26105.25002315  .00053959  00000+0  20086-2 0  9992
2 57368  43.0087  35.0109 0001676 280.6956  54.6045 15.26707071  5811
STARLINK-6168           
1 57369U 23099AT  26105.25002315  .00092743  00000+0  34527-2 0  9992
2 57369  43.0008  35.0039 0001233 255.9512  83.6060 15.26462580  5811
STARLINK-5353           
1 57370U 23099AU  26105.25002315  .00094453  00000+0  35063-2 0  9990
2 57370  43.0010  35.0973 0002263 277.7723  20.2002 15.26547519  5801
STARLINK-6032           
1 57371U 23099AV  26105.25002315  .00060139  00000+0  22349-2 0  9998
2 57371  43.0003  34.8121 0001506 257.9360 161.3255 15.26718603  5814
STARLINK-5975           
1 57372U 23099AW  26105.25002315  .00097140  00000+0  36617-2 0  9994
2 57372  43.0009  35.2585 0000946 267.0225 318.4681 15.26026579  5596
STARLINK-6370           
1 57373U 23099AX  26105.25002315  .00068909  00000+0  25578-2 0  9990
2 57373  43.0013  35.3940 0001947 272.8273 258.3249 15.26699039  5800
STARLINK-6369           
1 57374U 23099AY  26105.15333250  .00000746  00000+0  36657-4 0  9992
2 57374  43.0041  17.8281 0001465 268.2521  91.8163 15.27573802151981
STARLINK-6363           
1 57375U 23099AZ  26105.25002315  .00098963  00000+0  38286-2 0  9995
2 57375  43.0003  35.2908 0001002 276.9654 297.6312 15.25152957  5814
STARLINK-6367           
1 57376U 23099BA  26105.17672023  .00006433  00000+0  24923-3 0  9991
2 57376  43.0036  31.8498 0001438 255.9639 104.1052 15.26747071151824
STARLINK-6358           
1 57377U 23099BB  26105.20824322  .00000188  00000+0  19578-4 0  9999
2 57377  43.0035  35.4913 0001114 263.9844  96.0877 15.20037147151783
STARLINK-6364           
1 57378U 23099BC  26105.13519142  .00000732  00000+0  36963-4 0  9995
2 57378  43.0037   6.3940 0001054 261.4914  98.5818 15.26743692152853
STARLINK-6361           
1 57379U 23099BD  26105.18342091  .00000249  00000+0  18965-4 0  9993
2 57379  43.0057  31.9048 0001066 276.5271  83.5459 15.26743226151829
STARLINK-6366           
1 57380U 23099BE  26105.14546465  .00000003  00000+0  97748-5 0  9997
2 57380  43.0023   6.4580 0001162 265.4339  94.6379 15.26741862152842
STARLINK-6371           
1 57381U 23099BF  26105.14585816  .00000500  00000+0  28308-4 0  9998
2 57381  43.0050  17.7628 0001183 270.7479  89.3237 15.26741862152729
STARLING 4              
1 57386U 23100A   26105.28703704  .00000364  00000+0  30869-4 0  9992
2 57386  99.5122 108.3624 0005920 323.0600  37.0212 15.06415115150430
STARLING 2              
1 57387U 23100B   26105.28743889  .00001418  00000+0  10229-3 0  9999
2 57387  99.5120 108.3843 0004835 335.5263  24.5727 15.06418187150433
STARLING 1              
1 57388U 23100C   26105.28726638  .00001669  00000+0  11935-3 0  9996
2 57388  99.5159 108.9590 0006219 118.1859 241.9991 15.06412938150431
STARLING 3              
1 57389U 23100D   26104.96016324  .00003748  00000+0  22586-3 0  9999
2 57389  99.5093 110.3822 0004526 327.1194  32.9748 15.11654231150514
LEMUR-2-MANO            
1 57390U 23100E   26105.03267356  .00163947  00000+0  11118-2 0  9999
2 57390  99.4447 140.0229 0012259 180.1527 179.9729 15.74384698152179
LEMUR-2-DEVERILL-M-T    
1 57391U 23100F   26105.26544150  .00011940  00000+0  33486-3 0  9993
2 57391  99.4538 126.0230 0005850 241.8131 118.2516 15.36808198151579
LEO 3                   
1 57392U 23100G   26105.30796699 -.00000046  00000+0 -18266-5 0  9994
2 57392  99.5542 230.2420 0018471 175.0198 185.1134 13.68418915137041
TIANMU-1 07             
1 57399U 23101A   26105.29284885  .00003230  00000+0  11595-3 0  9991
2 57399  97.2656 157.4165 0003312  55.5621 304.5932 15.29379189152033
TIANMU-1 08             
1 57400U 23101B   26105.32549124  .00000112  00000+0  64799-5 0  9990
2 57400  97.2642 157.2271 0003554  14.1904 345.9435 15.29286924152031
TIANMU-1 09             
1 57401U 23101C   26105.24399664  .00003177  00000+0  11445-3 0  9996
2 57401  97.2604 156.5970 0003365  42.6786 317.4716 15.29274971152026
TIANMU-1 10             
1 57402U 23101D   26105.27662051  .00003470  00000+0  12466-3 0  9993
2 57402  97.2682 157.6141 0004328  25.7814 334.3642 15.29300883152027
STARLINK-30240          
1 57404U 23102A   26105.00002315 -.00022028  00000+0 -79290-3 0  9998
2 57404  43.0030  43.5425 0001175 260.4746  71.2070 15.27597707  5897
STARLINK-30195          
1 57406U 23102C   26105.19127772  .00002119  00000+0  13741-3 0  9991
2 57406  43.0019  47.4481 0001215 271.5584  88.5122 15.11070975151762
STARLINK-30207          
1 57407U 23102D   26105.14289447  .00001342  00000+0  58274-4 0  9993
2 57407  43.0035  28.1945 0001288 268.1371  91.9333 15.27576457151998
STARLINK-30205          
1 57408U 23102E   26105.25002315  .00060342  00000+0  21862-2 0  9999
2 57408  43.0043  42.4193 0001713 272.8436 235.0198 15.27553966  5874
STARLINK-30222          
1 57409U 23102F   26105.18147834  .00000569  00000+0  30876-4 0  9990
2 57409  43.0057  42.2527 0000787 279.8096  80.2666 15.26745087151821
STARLINK-30172          
1 57410U 23102G   26105.11060237 -.00006323  00000+0 -22641-3 0  9992
2 57410  43.0012  43.4241 0000403 251.0844 108.9964 15.26718160151807
STARLINK-30214          
1 57411U 23102H   26105.18886331  .00007897  00000+0  30408-3 0  9996
2 57411  43.0053  42.3117 0001356 260.4039  99.6659 15.26706669151775
STARLINK-30182          
1 57412U 23102J   26105.19619741  .00001956  00000+0  82621-4 0  9992
2 57412  43.0033  42.3604 0001170 286.6943  73.3780 15.26729628151823
STARLINK-30191          
1 57413U 23102K   26105.08337325 -.00000037  00000+0  81679-5 0  9999
2 57413  43.0049 341.1151 0000800 270.5537  89.5223 15.27576029152534
STARLINK-30193          
1 57414U 23102L   26104.56944279  .00051332  00000+0  18222-2 0  9998
2 57414  43.0058  47.9545 0002644 267.2565  92.7984 15.28286410151706
STARLINK-30208          
1 57415U 23102M   26105.18220751 -.00001665  00000+0 -52388-4 0  9999
2 57415  43.0043  42.2544 0001195 272.7950  87.2765 15.26745167151777
STARLINK-30224          
1 57416U 23102N   26105.20262428  .00001243  00000+0  54698-4 0  9996
2 57416  43.0031  42.4098 0001043 275.8374  84.2359 15.27572505151824
STARLINK-30043          
1 57417U 23102P   26105.19436934 -.00006559  00000+0 -23481-3 0  9992
2 57417  43.0029  42.3423 0001524 276.7663  83.3015 15.26769454151827
STARLINK-30221          
1 57418U 23102Q   26105.19182796  .00000180  00000+0  23573-4 0  9992
2 57418  43.0034  47.4444 0000944 258.4433 101.6306 15.11067406151762
QIANKUN-1               
1 57422U 23103B   26104.86853178  .00006240  16474-5  72346-5 0  9994
2 57422  96.1750 154.0384 0046491 129.6625 230.8777 16.07683373157124
2023-104A               
1 57424U 23104A   26105.26361494  .00005382  00000+0  16721-3 0  9998
2 57424  97.2738 174.4340 0006857 354.7076   5.4093 15.33749225152393
2023-104C               
1 57426U 23104C   26105.30434581  .00006295  00000+0  23351-3 0  9994
2 57426  97.2674 170.7775 0010842 219.2404 140.8051 15.27890005152185
STARLINK-30189          
1 57430U 23105A   26105.25002315  .00683223  00000+0  20764-2 0  9996
2 57430  42.9993  18.0938 0002439 267.4482  40.3925 15.89612398  5984
STARLINK-30188          
1 57432U 23105C   26105.25600081  .00003810  00000+0  15544-3 0  9991
2 57432  43.0057  56.7991 0001257 276.8928  83.1780 15.25903124151103
STARLINK-30105          
1 57433U 23105D   26104.70551011  .00000446  00000+0  25730-4 0  9990
2 57433  43.0011 187.4327 0001493 271.1552  88.9128 15.27576316153834
STARLINK-30102          
1 57434U 23105E   26105.25645064 -.00000242  00000+0  74597-6 0  9996
2 57434  43.0051  53.3917 0001027 259.3219 100.7517 15.27590015151123
STARLINK-30237          
1 57437U 23105H   26105.25002315  .00147216  00000+0  56950-3 0  9997
2 57437  42.9906  12.7066 0021832 229.4268 122.7455 15.85663806  5952
STARLINK-30158          
1 57438U 23105J   26105.19363914  .00001040  00000+0  47323-4 0  9995
2 57438  43.0051  53.7771 0001607 270.2130  89.8537 15.27584533151168
STARLINK-30160          
1 57441U 23105M   26105.25002315  .00067402  00000+0  27971-2 0  9990
2 57441  42.9999  60.0323 0001844 263.1938 151.6865 15.22984724  5830
STARLINK-30146          
1 57442U 23105N   26105.19749328  .00000324  00000+0  21294-4 0  9990
2 57442  43.0042  53.8041 0001306 268.4315  91.6387 15.27574270151222
STARLINK-30197          
1 57443U 23105P   26105.24231939  .00000841  00000+0  40096-4 0  9996
2 57443  43.0056  53.2869 0000801 269.8140  90.2620 15.27579145151175
STARLINK-30181          
1 57444U 23105Q   26104.98542067  .00052347  00000+0  19133-2 0  9998
2 57444  43.0021  58.1992 0000803 285.2590  74.8173 15.27322252151156
STARLINK-30215          
1 57445U 23105R   26105.27059159  .00001465  00000+0  62748-4 0  9994
2 57445  43.0036  53.4906 0000990 261.8097  98.2642 15.27572299151019
STARLINK-30162          
1 57446U 23105S   26105.18598365  .00000207  00000+0  17035-4 0  9994
2 57446  43.0018  42.6791 0001186 269.1514  90.9202 15.27577601151298
STARLINK-30178          
1 57447U 23105T   26105.26673704  .00000431  00000+0  25196-4 0  9991
2 57447  43.0037  53.4625 0001209 272.8882  87.1831 15.27576398151176
STARLINK-30196          
1 57448U 23105U   26105.22937010  .00002232  00000+0  92829-4 0  9999
2 57448  43.0008  56.5874 0001274 271.3068  88.7637 15.26746780150978
STARLINK-30225          
1 57449U 23105V   26105.24311185  .00000562  00000+0  29949-4 0  9998
2 57449  43.0027  56.6883 0001199 269.1536  90.9178 15.27573755151193
STARLINK-30217          
1 57450U 23105W   26105.12317571  .00001148  00000+0  51244-4 0  9996
2 57450  43.0033  43.1160 0001300 271.6187  88.4516 15.27580230151289
